*******************************************************************************
Ephemeris / WWW_USER Mon Mar 24 08:27:29 2025 Pasadena, USA      / Horizons    
*******************************************************************************
Target body name: (2018 VS8)                      {source: JPL#8}
Center body name: Earth (399)                     {source: DE441}
Center-site name: Mauna Kea
*******************************************************************************
Start time      : A.D. 2018-Nov-29 03:51:00.0000 UT      
Stop  time      : A.D. 2018-Nov-29 16:29:00.0000 UT      
Step-size       : 1 minutes
*******************************************************************************
Target pole/equ : undefined
Target radii    : undefined                                                    
Center geodetic : 204.5278, 19.8260847, 4.21024   {E-lon(deg),Lat(deg),Alt(km)}
Center cylindric: 204.5278, 6006.35451, 2151.0229 {E-lon(deg),Dxy(km),Dz(km)}
Center pole/equ : ITRF93                          {East-longitude positive}
Center radii    : 6378.137, 6378.137, 6356.752 km {Equator_a, b, pole_c}       
Target primary  : Sun
Vis. interferer : MOON (R_eq= 1737.400) km        {source: DE441}
Rel. light bend : Sun                             {source: DE441}
Rel. lght bnd GM: 1.3271E+11 km^3/s^2                                          
Small-body perts: Yes                             {source: SB441-N16}
Atmos refraction: NO (AIRLESS)
RA format       : HMS
Time format     : CAL 
Calendar mode   : Mixed Julian/Gregorian
RTS-only print  : NO       
EOP file        : eop.250321.p250617                                           
EOP coverage    : DATA-BASED 1962-JAN-20 TO 2025-MAR-21. PREDICTS-> 2025-JUN-16
Units conversion: 1 au= 149597870.700 km, c= 299792.458 km/s, 1 day= 86400.0 s 
Table cut-offs 1: Elevation (-90.0deg=NO ),Airmass (>38.000=NO), Daylight (YES)
Table cut-offs 2: Solar elongation (  0.0,180.0=NO ),Local Hour Angle( 0.0=NO )
Table cut-offs 3: RA/DEC angular rate (     0.0=NO )                           
*******************************************************************************
Initial IAU76/J2000 heliocentric ecliptic osculating elements (au, days, deg.):
  EPOCH=  2458433.5 ! 2018-Nov-11.00 (TDB)         Residual RMS= .33953        
   EC= .5263784885368822   QR= .9373233613851428   TP= 2458465.1575556668      
   OM= 53.89076972236643   W=  33.71683445616237   IN= 3.430463171034721       
  Equivalent ICRF heliocentric cartesian coordinates (au, au/d):
   X= 6.888560011548344E-01  Y= 6.928655939663307E-01  Z= 2.929974091538562E-01
  VX=-1.813811938800288E-02 VY= 8.693003909227039E-03 VZ= 5.111678677431928E-03
Asteroid physical parameters (km, seconds, rotational period in hours):        
   GM= n.a.                RAD= n.a.               ROTPER= n.a.                
   H= 27.2                 G= .150                 B-V= n.a.                   
                           ALBEDO= n.a.            STYP= n.a.                  
*******************************************************************************
 Date__(UT)__HR:MN     R.A._________(ICRF)_________DEC
******************************************************
$$SOE
 2018-Nov-29 12:03  m  13 05 15.454090 +08 15 43.13940
 2018-Nov-29 12:04  m  13 05 15.527822 +08 15 42.57740
 2018-Nov-29 12:05  m  13 05 15.601389 +08 15 42.01551
 2018-Nov-29 12:06  m  13 05 15.674792 +08 15 41.45373
 2018-Nov-29 12:07  m  13 05 15.748030 +08 15 40.89206
 2018-Nov-29 12:08  m  13 05 15.821103 +08 15 40.33050
 2018-Nov-29 12:09  m  13 05 15.894011 +08 15 39.76904
 2018-Nov-29 12:10  m  13 05 15.966754 +08 15 39.20769
 2018-Nov-29 12:11  m  13 05 16.039331 +08 15 38.64644
 2018-Nov-29 12:12  m  13 05 16.111744 +08 15 38.08530
 2018-Nov-29 12:13  m  13 05 16.183991 +08 15 37.52425
 2018-Nov-29 12:14  m  13 05 16.256072 +08 15 36.96330
 2018-Nov-29 12:15  m  13 05 16.327988 +08 15 36.40245
 2018-Nov-29 12:16  m  13 05 16.399738 +08 15 35.84170
 2018-Nov-29 12:17  m  13 05 16.471322 +08 15 35.28104
 2018-Nov-29 12:18  m  13 05 16.542740 +08 15 34.72047
 2018-Nov-29 12:19  m  13 05 16.613993 +08 15 34.16000
 2018-Nov-29 12:20  m  13 05 16.685079 +08 15 33.59961
 2018-Nov-29 12:21  m  13 05 16.755999 +08 15 33.03931
 2018-Nov-29 12:22  m  13 05 16.826753 +08 15 32.47910
 2018-Nov-29 12:23  m  13 05 16.897340 +08 15 31.91898
 2018-Nov-29 12:24  m  13 05 16.967761 +08 15 31.35894
 2018-Nov-29 12:25  m  13 05 17.038015 +08 15 30.79898
 2018-Nov-29 12:26  m  13 05 17.108103 +08 15 30.23910
 2018-Nov-29 12:27  m  13 05 17.178025 +08 15 29.67930
 2018-Nov-29 12:28  m  13 05 17.247780 +08 15 29.11958
 2018-Nov-29 12:29  m  13 05 17.317368 +08 15 28.55993
 2018-Nov-29 12:30  m  13 05 17.386789 +08 15 28.00036
 2018-Nov-29 12:31  m  13 05 17.456043 +08 15 27.44087
 2018-Nov-29 12:32  r  13 05 17.525131 +08 15 26.88144
 2018-Nov-29 12:33  m  13 05 17.594051 +08 15 26.32209
 2018-Nov-29 12:34  m  13 05 17.662805 +08 15 25.76280
 2018-Nov-29 12:35  m  13 05 17.731392 +08 15 25.20358
 2018-Nov-29 12:36  m  13 05 17.799811 +08 15 24.64443
 2018-Nov-29 12:37  m  13 05 17.868064 +08 15 24.08534
 2018-Nov-29 12:38  m  13 05 17.936149 +08 15 23.52632
 2018-Nov-29 12:39  m  13 05 18.004068 +08 15 22.96735
 2018-Nov-29 12:40  m  13 05 18.071819 +08 15 22.40845
 2018-Nov-29 12:41  m  13 05 18.139403 +08 15 21.84960
 2018-Nov-29 12:42  m  13 05 18.206820 +08 15 21.29081
 2018-Nov-29 12:43  m  13 05 18.274069 +08 15 20.73208
 2018-Nov-29 12:44  m  13 05 18.341152 +08 15 20.17340
 2018-Nov-29 12:45  m  13 05 18.408067 +08 15 19.61477
 2018-Nov-29 12:46  m  13 05 18.474815 +08 15 19.05619
 2018-Nov-29 12:47  m  13 05 18.541396 +08 15 18.49766
 2018-Nov-29 12:48  m  13 05 18.607809 +08 15 17.93918
 2018-Nov-29 12:49  m  13 05 18.674055 +08 15 17.38075
 2018-Nov-29 12:50  m  13 05 18.740135 +08 15 16.82236
 2018-Nov-29 12:51  m  13 05 18.806046 +08 15 16.26402
 2018-Nov-29 12:52  m  13 05 18.871791 +08 15 15.70571
 2018-Nov-29 12:53  m  13 05 18.937369 +08 15 15.14745
 2018-Nov-29 12:54  m  13 05 19.002779 +08 15 14.58922
 2018-Nov-29 12:55  m  13 05 19.068023 +08 15 14.03104
 2018-Nov-29 12:56  m  13 05 19.133099 +08 15 13.47288
 2018-Nov-29 12:57  m  13 05 19.198008 +08 15 12.91477
 2018-Nov-29 12:58  m  13 05 19.262750 +08 15 12.35668
 2018-Nov-29 12:59  m  13 05 19.327325 +08 15 11.79863
 2018-Nov-29 13:00  m  13 05 19.391733 +08 15 11.24060
 2018-Nov-29 13:01  m  13 05 19.455975 +08 15 10.68261
 2018-Nov-29 13:02  m  13 05 19.520049 +08 15 10.12464
 2018-Nov-29 13:03  m  13 05 19.583956 +08 15 09.56670
 2018-Nov-29 13:04  m  13 05 19.647697 +08 15 09.00878
 2018-Nov-29 13:05  m  13 05 19.711271 +08 15 08.45088
 2018-Nov-29 13:06  m  13 05 19.774679 +08 15 07.89300
 2018-Nov-29 13:07  m  13 05 19.837919 +08 15 07.33514
 2018-Nov-29 13:08  m  13 05 19.900994 +08 15 06.77730
 2018-Nov-29 13:09  m  13 05 19.963901 +08 15 06.21948
 2018-Nov-29 13:10  m  13 05 20.026643 +08 15 05.66167
 2018-Nov-29 13:11  m  13 05 20.089218 +08 15 05.10388
 2018-Nov-29 13:12  m  13 05 20.151627 +08 15 04.54609
 2018-Nov-29 13:13  m  13 05 20.213869 +08 15 03.98832
 2018-Nov-29 13:14  m  13 05 20.275946 +08 15 03.43056
 2018-Nov-29 13:15  m  13 05 20.337856 +08 15 02.87280
 2018-Nov-29 13:16  m  13 05 20.399601 +08 15 02.31505
 2018-Nov-29 13:17  m  13 05 20.461180 +08 15 01.75730
 2018-Nov-29 13:18  m  13 05 20.522593 +08 15 01.19956
 2018-Nov-29 13:19  m  13 05 20.583840 +08 15 00.64182
 2018-Nov-29 13:20  m  13 05 20.644922 +08 15 00.08407
 2018-Nov-29 13:21  m  13 05 20.705838 +08 14 59.52633
 2018-Nov-29 13:22  m  13 05 20.766589 +08 14 58.96858
 2018-Nov-29 13:23  m  13 05 20.827175 +08 14 58.41083
 2018-Nov-29 13:24  m  13 05 20.887596 +08 14 57.85307
 2018-Nov-29 13:25  m  13 05 20.947852 +08 14 57.29531
 2018-Nov-29 13:26  m  13 05 21.007943 +08 14 56.73753
 2018-Nov-29 13:27  m  13 05 21.067869 +08 14 56.17975
 2018-Nov-29 13:28  m  13 05 21.127630 +08 14 55.62195
 2018-Nov-29 13:29  m  13 05 21.187227 +08 14 55.06414
 2018-Nov-29 13:30  m  13 05 21.246660 +08 14 54.50632
 2018-Nov-29 13:31  m  13 05 21.305929 +08 14 53.94848
 2018-Nov-29 13:32  m  13 05 21.365033 +08 14 53.39062
 2018-Nov-29 13:33  m  13 05 21.423973 +08 14 52.83274
 2018-Nov-29 13:34  m  13 05 21.482750 +08 14 52.27484
 2018-Nov-29 13:35  m  13 05 21.541363 +08 14 51.71692
 2018-Nov-29 13:36  m  13 05 21.599812 +08 14 51.15898
 2018-Nov-29 13:37  m  13 05 21.658098 +08 14 50.60101
 2018-Nov-29 13:38  m  13 05 21.716221 +08 14 50.04301
 2018-Nov-29 13:39  m  13 05 21.774181 +08 14 49.48499
 2018-Nov-29 13:40  m  13 05 21.831978 +08 14 48.92694
 2018-Nov-29 13:41  m  13 05 21.889612 +08 14 48.36885
 2018-Nov-29 13:42  m  13 05 21.947083 +08 14 47.81074
 2018-Nov-29 13:43  m  13 05 22.004393 +08 14 47.25259
 2018-Nov-29 13:44  m  13 05 22.061540 +08 14 46.69440
 2018-Nov-29 13:45  m  13 05 22.118525 +08 14 46.13618
 2018-Nov-29 13:46  m  13 05 22.175348 +08 14 45.57792
 2018-Nov-29 13:47  m  13 05 22.232009 +08 14 45.01962
 2018-Nov-29 13:48  m  13 05 22.288509 +08 14 44.46128
 2018-Nov-29 13:49  m  13 05 22.344848 +08 14 43.90289
 2018-Nov-29 13:50  m  13 05 22.401025 +08 14 43.34446
 2018-Nov-29 13:51  m  13 05 22.457042 +08 14 42.78599
 2018-Nov-29 13:52  m  13 05 22.512897 +08 14 42.22747
 2018-Nov-29 13:53  m  13 05 22.568593 +08 14 41.66890
 2018-Nov-29 13:54  m  13 05 22.624128 +08 14 41.11028
 2018-Nov-29 13:55  m  13 05 22.679503 +08 14 40.55162
 2018-Nov-29 13:56  m  13 05 22.734718 +08 14 39.99289
 2018-Nov-29 13:57  m  13 05 22.789773 +08 14 39.43412
 2018-Nov-29 13:58  m  13 05 22.844669 +08 14 38.87529
 2018-Nov-29 13:59  m  13 05 22.899405 +08 14 38.31640
 2018-Nov-29 14:00  m  13 05 22.953983 +08 14 37.75745
 2018-Nov-29 14:01  m  13 05 23.008401 +08 14 37.19845
 2018-Nov-29 14:02  m  13 05 23.062661 +08 14 36.63938
 2018-Nov-29 14:03  m  13 05 23.116763 +08 14 36.08025
 2018-Nov-29 14:04  m  13 05 23.170707 +08 14 35.52106
 2018-Nov-29 14:05  m  13 05 23.224492 +08 14 34.96180
